[{"OBJECT_NAME":"TRANSPORTER-12 OBJECT AZ","OBJECT_ID":"2025-009AZ","EPOCH":"2026-03-09T17:02:46.667040","MEAN_MOTION":15.30349724,"ECCENTRICITY":9.87e-5,"INCLINATION":97.3981,"RA_OF_ASC_NODE":151.9913,"ARG_OF_PERICENTER":45.3581,"MEAN_ANOMALY":314.774,"EPHEMERIS_TYPE":0,"CLASSIFICATION_TYPE":"U","NORAD_CAT_ID":62656,"ELEMENT_SET_NO":999,"REV_AT_EPOCH":6379,"BSTAR":0.00054902545,"MEAN_MOTION_DOT":0.00016057,"MEAN_MOTION_DDOT":0},{"OBJECT_NAME":"STARLINK-35770","OBJECT_ID":"2025-288U","EPOCH":"2026-03-09T22:37:22.412064","MEAN_MOTION":15.27582343,"ECCENTRICITY":0.00015391,"INCLINATION":43.0014,"RA_OF_ASC_NODE":22.235,"ARG_OF_PERICENTER":249.4782,"MEAN_ANOMALY":110.5905,"EPHEMERIS_TYPE":0,"CLASSIFICATION_TYPE":"U","NORAD_CAT_ID":66977,"ELEMENT_SET_NO":999,"REV_AT_EPOCH":1532,"BSTAR":0.00085927539,"MEAN_MOTION_DOT":0.0002346,"MEAN_MOTION_DDOT":0}]
